#aV2014 11 17  0  0  0.00000000     288 DD+AD WGS84 FIT  NGA
## 1819  86400.00000000   300.00000000 56978 0.0000000000000
+   31     1  2  4  5  6  7  8  9 10 11 12 13 14 15 16 17 18
+         19 20 21 22 23 24 25 26 27 28 29 30 31 32  0  0  0
+          0  0  0  0  0  0  0  0  0  0  0  0  0  0  0  0  0
+          0  0  0  0  0  0  0  0  0  0  0  0  0  0  0  0  0
+          0  0  0  0  0  0  0  0  0  0  0  0  0  0  0  0  0
++         2  2  2  2  2  2  2  2  2  2  2  2  2  2  2  2  2
++         2  2  2  2  2  2  2  2  2  2  2  2  2  2  0  0  0
++         0  0  0  0  0  0  0  0  0  0  0  0  0  0  0  0  0
++         0  0  0  0  0  0  0  0  0  0  0  0  0  0  0  0  0
++         0  0  0  0  0  0  0  0  0  0  0  0  0  0  0  0  0
%c cc cc ccc ccc cccc cccc cccc cccc ccccc ccccc ccccc ccccc
%c cc cc ccc ccc cccc cccc cccc cccc ccccc ccccc ccccc ccccc
%f  0.0000000  0.000000000  0.00000000000  0.000000000000000
%f  0.0000000  0.000000000  0.00000000000  0.000000000000000
%i    0    0    0    0      0      0      0      0         0
%i    0    0    0    0      0      0      0      0         0
/*      NGA, ST. LOUIS,MO.                                  
/*   EPHEMERIS COMPUTED FROM  1 DAYS OF DATA                
/*   EPOCHA SMOOTHER                                       
/* CCCCCCCCCCCCCCCCCCCCCCCCCCCCCCCCCCCCCCCCCCCCCCCCCCCCCCCCC
*  2014 11 17  6 25  0.00000000
P  1  -4295.851707 -14625.975381 -21803.772293    -12.049887                    
V  1  26739.087888  -6675.414669   -635.758250      0.003920                    
P  2 -19140.728951  14214.924535  11503.541414    530.562765                    
V  2 -14680.474442    840.905424 -26673.300358      0.022166                    
P  4   6307.067159 -16754.508937 -19852.552354     -3.156495                    
V  4  24211.196014  -5014.511280  12375.557730     -0.006921                    
P  5  -7958.965834  13699.990083  21248.114832   -317.054396                    
V  5 -19527.541942 -18899.959953   5035.685177      0.044666                    
P  6 -25853.281587   5964.771972  -1016.048916     11.609378                    
V  6    522.261620  -3057.957300 -31734.090284      0.054122                    
P  7 -17438.548494  -8780.981911  18264.930119    413.455988                    
V  7  21995.398221  -6246.929406  17744.011578      0.037596                    
P  8   2380.808241 -14730.777400  22085.338094     16.330046                    
V  8  27436.487699  -2845.901092  -5515.453272      0.001176                    
P  9  -9806.257607 -15364.707817  19315.670353     -7.629246                    
V  9   7805.141146 -23296.572137 -14579.543007     -0.074655                    
P 10 -20086.017446  -3165.235325  16936.777826   -150.207494                    
V 10 -13892.411771 -17312.701046 -18869.376107     -0.016103                    
P 11   1599.748120 -19189.774454 -18760.235285   -536.966397                    
V 11  20503.346462 -10884.906573  13420.286227     -0.028709                    
P 12   6849.631775  21572.043280 -14148.031568    246.832498                    
V 12 -12799.840009 -12295.266832 -24875.280792      0.027994                    
P 13 -16741.960373   6037.473894  19652.155756    -61.266118                    
V 13   8452.100838 -23696.148817  14204.413245     -0.035151                    
P 14  16136.486951  -2893.745672 -20633.355884    114.954404                    
V 14  -8263.755330  25451.124284 -10061.403016     -0.036097                    
P 15  -1622.599628  25709.302554  -5820.388161   -215.046050                    
V 15  -5332.701783   6348.445606  30190.499146     -0.022200                    
P 16   8205.888676 -12478.346737  21868.913582   -180.159426                    
V 16  18570.055291  20785.483963   5227.963345      0.028421                    
P 17 -15689.804398   1588.773207 -21061.460256   -138.076617                    
V 17   7799.534058 -26272.267388  -7915.822577     -0.024506                    
P 18  20971.398981  15694.629424  -4843.761853    358.853412                    
V 18   2203.293388   7294.342621  29942.403761      0.026140                    
P 19   8078.885645 -24972.764869  -2041.994877   -488.472406                    
V 19   3641.896317  -1194.563242  32061.203965     -0.016898                    
P 20 -12968.758388 -21239.834335  -9582.136193    257.471263                    
V 20  11143.502287   5429.164090 -27628.031796      0.041939                    
P 21  22042.357076   5429.300200  14776.037471   -395.310325                    
V 21 -16369.519640   6720.582470  22574.867344     -0.020614                    
P 22  21000.241508   4304.620256 -15570.660234    287.758107                    
V 22  12439.674548  16144.120005  20786.340192      0.035894                    
P 23  -2852.152553 -22992.935437  12722.292826    -67.905085                    
V 23   7161.086105 -14730.968532 -25694.083861     -0.027874                    
P 24    429.485197  15624.022823 -21480.362941    -38.579049                    
V 24 -26446.699862   6658.539048   4434.363494     -0.005783                    
P 25  17133.425268  20208.480146  -2841.909869     13.881182                    
V 25  -3976.197112   -991.712073 -31761.160715     -0.017566                    
P 26 -12330.628746  22719.668088   4750.787017   -125.746060                    
V 26      7.196872  -7414.150388  31450.008781     -0.130358                    
P 27  12473.380911 -21574.999477   9065.729835     30.457253                    
V 27   -670.537906  11795.779695  29020.080405      0.028067                    
P 28 -20289.848911 -10628.993395 -12930.899806    398.945423                    
V 28  -9997.744620 -14280.734133  26069.578062      0.026122                    
P 29   7464.562553  17526.408352  18549.756324    573.752303                    
V 29  -8735.030099  21809.694525 -17080.617733      0.024907                    
P 30 -24705.897420  -2448.645022   9507.805033    -80.702673                    
V 30  11428.820367  -4644.588063  28457.906988     -0.022893                    
P 31  25808.870522  -6841.151646   1574.338923    328.909034                    
V 31   2191.206463   1590.150561 -31808.823663     -0.006267                    
P 32   1047.722581 -19405.979563 -18324.301153   -292.046707                    
V 32  15838.589030  16932.111733 -16468.564039      0.089252                    
EOF
